start=new Date('2021-10-15T00:00:00.000Z').valueOf();
sats=[{"OBJECT_NAME":"STARLINK-2335","MEAN_ANOMALY":"285.7665","TIME_SYSTEM":"UTC","COUNTRY_CODE":"US","LAUNCH_DATE":"2021-03-14","NORAD_CAT_ID":"47878","ARG_OF_PERICENTER":"74.3503","DECAY_DATE":null,"SEMIMAJOR_AXIS":"6925.399","FILE":"3163138","BSTAR":"-0.00008266400000","SITE":"AFETR","CENTER_NAME":"EARTH","MEAN_ELEMENT_THEORY":"SGP4","CLASSIFICATION_TYPE":"U","REF_FRAME":"TEME","OBJECT_TYPE":"PAYLOAD","PERIAPSIS":"546.140","MEAN_MOTION_DOT":"-0.00001512","REV_AT_EPOCH":"3377","ECCENTRICITY":"0.00016220","TLE_LINE1":"1 47878U 21021U   21287.70315684 -.00001512  00000-0 -82664-4 0  9995","RCS_SIZE":"LARGE","EPOCH":"2021-10-14T16:52:32.750976","APOAPSIS":"548.387","OBJECT_ID":"2021-021U","MEAN_MOTION":"15.06383666","GP_ID":"187188793","EPHEMERIS_TYPE":"0","INCLINATION":"53.0565","PERIOD":"95.593","RA_OF_ASC_NODE":"285.6577","TLE_LINE2":"2 47878  53.0565 285.6577 0001622  74.3503 285.7665 15.06383666 33776","MEAN_MOTION_DDOT":"0.0000000000000","ELEMENT_SET_NO":"999"},{"PERIOD":"95.593","INCLINATION":"53.0552","RA_OF_ASC_NODE":"300.3843","TLE_LINE2":"2 47879  53.0552 300.3843 0001273  80.8831 279.2302 15.06382284 33953","ELEMENT_SET_NO":"999","MEAN_MOTION_DDOT":"0.0000000000000","TLE_LINE1":"1 47879U 21021V   21287.76627220 -.00003179  00000-0 -19472-3 0  9991","RCS_SIZE":"LARGE","ECCENTRICITY":"0.00012730","APOAPSIS":"548.149","EPOCH":"2021-10-14T18:23:25.918080","EPHEMERIS_TYPE":"0","GP_ID":"187189043","MEAN_MOTION":"15.06382284","OBJECT_ID":"2021-021V","OBJECT_TYPE":"PAYLOAD","PERIAPSIS":"546.386","REV_AT_EPOCH":"3395","MEAN_MOTION_DOT":"-0.00003179","MEAN_ANOMALY":"279.2302","OBJECT_NAME":"STARLINK-2336","TIME_SYSTEM":"UTC","SEMIMAJOR_AXIS":"6925.403","DECAY_DATE":null,"ARG_OF_PERICENTER":"80.8831","COUNTRY_CODE":"US","LAUNCH_DATE":"2021-03-14","NORAD_CAT_ID":"47879","CLASSIFICATION_TYPE":"U","REF_FRAME":"TEME","CENTER_NAME":"EARTH","MEAN_ELEMENT_THEORY":"SGP4","FILE":"3163138","SITE":"AFETR","BSTAR":"-0.00019472000000"},{"APOAPSIS":"548.198","EPOCH":"2021-10-14T17:48:14.262336","EPHEMERIS_TYPE":"0","OBJECT_ID":"2021-021W","MEAN_MOTION":"15.06392537","GP_ID":"187190295","RCS_SIZE":"LARGE","TLE_LINE1":"1 47880U 21021W   21287.74183174 -.00001352  00000-0 -71885-4 0  9994","ECCENTRICITY":"0.00013880","MEAN_MOTION_DDOT":"0.0000000000000","ELEMENT_SET_NO":"999","PERIOD":"95.593","INCLINATION":"53.0544","RA_OF_ASC_NODE":"295.4726","TLE_LINE2":"2 47880  53.0544 295.4726 0001388  77.4279 282.6865 15.06392537 33847","SEMIMAJOR_AXIS":"6925.371","NORAD_CAT_ID":"47880","LAUNCH_DATE":"2021-03-14","COUNTRY_CODE":"US","DECAY_DATE":null,"ARG_OF_PERICENTER":"77.4279","REF_FRAME":"TEME","CLASSIFICATION_TYPE":"U","SITE":"AFETR","FILE":"3163138","BSTAR":"-0.00007188500000","MEAN_ELEMENT_THEORY":"SGP4","CENTER_NAME":"EARTH","MEAN_ANOMALY":"282.6865","OBJECT_NAME":"STARLINK-2337","TIME_SYSTEM":"UTC","PERIAPSIS":"546.275","REV_AT_EPOCH":"3384","MEAN_MOTION_DOT":"-0.00001352","OBJECT_TYPE":"PAYLOAD"},{"PERIAPSIS":"545.868","REV_AT_EPOCH":"3381","MEAN_MOTION_DOT":"-0.00000612","OBJECT_TYPE":"PAYLOAD","SEMIMAJOR_AXIS":"6925.383","ARG_OF_PERICENTER":"50.1621","DECAY_DATE":null,"COUNTRY_CODE":"US","LAUNCH_DATE":"2021-03-14","NORAD_CAT_ID":"47881","REF_FRAME":"TEME","CLASSIFICATION_TYPE":"U","CENTER_NAME":"EARTH","MEAN_ELEMENT_THEORY":"SGP4","FILE":"3163138","SITE":"AFETR","BSTAR":"-0.00002215300000","MEAN_ANOMALY":"309.9543","OBJECT_NAME":"STARLINK-2339","TIME_SYSTEM":"UTC","ELEMENT_SET_NO":"999","MEAN_MOTION_DDOT":"0.0000000000000","PERIOD":"95.593","INCLINATION":"53.0560","RA_OF_ASC_NODE":"295.2695","TLE_LINE2":"2 47881  53.0560 295.2695 0001994  50.1621 309.9543 15.06388616 33817","APOAPSIS":"548.629","EPOCH":"2021-10-14T18:21:26.337888","EPHEMERIS_TYPE":"0","GP_ID":"187190045","MEAN_MOTION":"15.06388616","OBJECT_ID":"2021-021X","RCS_SIZE":"LARGE","TLE_LINE1":"1 47881U 21021X   21287.76488817 -.00000612  00000-0 -22153-4 0  9991","ECCENTRICITY":"0.00019940"},{"OBJECT_TYPE":"PAYLOAD","REV_AT_EPOCH":"3347","MEAN_MOTION_DOT":"0.00000406","PERIAPSIS":"546.305","TIME_SYSTEM":"UTC","MEAN_ANOMALY":"271.3916","OBJECT_NAME":"STARLINK-2340","CLASSIFICATION_TYPE":"U","REF_FRAME":"TEME","BSTAR":"0.00004614900000","FILE":"3162533","SITE":"AFETR","CENTER_NAME":"EARTH","MEAN_ELEMENT_THEORY":"SGP4","SEMIMAJOR_AXIS":"6925.364","LAUNCH_DATE":"2021-03-14","COUNTRY_CODE":"US","NORAD_CAT_ID":"47882","ARG_OF_PERICENTER":"88.7225","DECAY_DATE":null,"TLE_LINE2":"2 47882  53.0542 286.6739 0001334  88.7225 271.3916 15.06395031 33473","RA_OF_ASC_NODE":"286.6739","PERIOD":"95.592","INCLINATION":"53.0542","MEAN_MOTION_DDOT":"0.0000000000000","ELEMENT_SET_NO":"999","TLE_LINE1":"1 47882U 21021Y   21287.47461459  .00000406  00000-0  46149-4 0  9993","RCS_SIZE":"LARGE","ECCENTRICITY":"0.00013340","EPHEMERIS_TYPE":"0","OBJECT_ID":"2021-021Y","MEAN_MOTION":"15.06395031","GP_ID":"187156348","APOAPSIS":"548.153","EPOCH":"2021-10-14T11:23:26.700576"},{"EPOCH":"2021-10-14T17:05:08.607552","APOAPSIS":"548.042","MEAN_MOTION":"15.06386080","GP_ID":"187189544","OBJECT_ID":"2021-021Z","EPHEMERIS_TYPE":"0","ECCENTRICITY":"0.00011350","RCS_SIZE":"LARGE","TLE_LINE1":"1 47883U 21021Z   21287.71190518 -.00001003  00000-0 -48510-4 0  9996","ELEMENT_SET_NO":"999","MEAN_MOTION_DDOT":"0.0000000000000","PERIOD":"95.593","INCLINATION":"53.0575","RA_OF_ASC_NODE":"290.6179","TLE_LINE2":"2 47883  53.0575 290.6179 0001135  74.1336 285.9778 15.06386080 34083","DECAY_DATE":null,"ARG_OF_PERICENTER":"74.1336","LAUNCH_DATE":"2021-03-14","NORAD_CAT_ID":"47883","COUNTRY_CODE":"US","SEMIMAJOR_AXIS":"6925.391","MEAN_ELEMENT_THEORY":"SGP4","CENTER_NAME":"EARTH","FILE":"3163138","SITE":"AFETR","BSTAR":"-0.00004851000000","CLASSIFICATION_TYPE":"U","REF_FRAME":"TEME","OBJECT_NAME":"STARLINK-2342","MEAN_ANOMALY":"285.9778","TIME_SYSTEM":"UTC","PERIAPSIS":"546.470","MEAN_MOTION_DOT":"-0.00001003","REV_AT_EPOCH":"3408","OBJECT_TYPE":"PAYLOAD"},{"PERIAPSIS":"546.191","MEAN_MOTION_DOT":"-0.00002160","REV_AT_EPOCH":"3384","OBJECT_TYPE":"PAYLOAD","COUNTRY_CODE":"US","LAUNCH_DATE":"2021-03-14","NORAD_CAT_ID":"47884","ARG_OF_PERICENTER":"66.1357","DECAY_DATE":null,"SEMIMAJOR_AXIS":"6925.378","BSTAR":"-0.00012616000000","FILE":"3163138","SITE":"AFETR","MEAN_ELEMENT_THEORY":"SGP4","CENTER_NAME":"EARTH","CLASSIFICATION_TYPE":"U","REF_FRAME":"TEME","OBJECT_NAME":"STARLINK-2343","MEAN_ANOMALY":"293.9791","TIME_SYSTEM":"UTC","MEAN_MOTION_DDOT":"0.0000000000000","ELEMENT_SET_NO":"999","PERIOD":"95.593","INCLINATION":"53.0520","TLE_LINE2":"2 47884  53.0520 295.3970 0001519  66.1357 293.9791 15.06390259 33845","RA_OF_ASC_NODE":"295.3970","EPOCH":"2021-10-14T18:16:08.310720","APOAPSIS":"548.295","OBJECT_ID":"2021-021AA","MEAN_MOTION":"15.06390259","GP_ID":"187189795","EPHEMERIS_TYPE":"0","ECCENTRICITY":"0.00015190","TLE_LINE1":"1 47884U 21021AA  21287.76120730 -.00002160  00000-0 -12616-3 0  9993","RCS_SIZE":"LARGE"},{"RCS_SIZE":"LARGE","TLE_LINE1":"1 47885U 21021AB  21287.75521708 -.00001832  00000-0 -10414-3 0  9992","ECCENTRICITY":"0.00016410","EPHEMERIS_TYPE":"0","MEAN_MOTION":"15.06389593","GP_ID":"187190546","OBJECT_ID":"2021-021AB","APOAPSIS":"548.382","EPOCH":"2021-10-14T18:07:30.755712","RA_OF_ASC_NODE":"300.4169","TLE_LINE2":"2 47885  53.0550 300.4169 0001641  73.5179 286.5990 15.06389593 33935","PERIOD":"95.593","INCLINATION":"53.0550","ELEMENT_SET_NO":"999","MEAN_MOTION_DDOT":"0.0000000000000","TIME_SYSTEM":"UTC","MEAN_ANOMALY":"286.5990","OBJECT_NAME":"STARLINK-2344","CLASSIFICATION_TYPE":"U","REF_FRAME":"TEME","MEAN_ELEMENT_THEORY":"SGP4","CENTER_NAME":"EARTH","SITE":"AFETR","FILE":"3163138","BSTAR":"-0.00010414000000","SEMIMAJOR_AXIS":"6925.380","DECAY_DATE":null,"ARG_OF_PERICENTER":"73.5179","COUNTRY_CODE":"US","LAUNCH_DATE":"2021-03-14","NORAD_CAT_ID":"47885","OBJECT_TYPE":"PAYLOAD","REV_AT_EPOCH":"3393","MEAN_MOTION_DOT":"-0.00001832","PERIAPSIS":"546.109"},{"ECCENTRICITY":"0.00015240","RCS_SIZE":"LARGE","TLE_LINE1":"1 47886U 21021AC  21287.42345472 -.00001464  00000-0 -79426-4 0  9999","GP_ID":"187146454","MEAN_MOTION":"15.06385897","OBJECT_ID":"2021-021AC","EPHEMERIS_TYPE":"0","EPOCH":"2021-10-14T10:09:46.487808","APOAPSIS":"548.312","TLE_LINE2":"2 47886  53.0555 291.9099 0001524  71.3434 288.7720 15.06385897 33384","RA_OF_ASC_NODE":"291.9099","PERIOD":"95.593","INCLINATION":"53.0555","ELEMENT_SET_NO":"999","MEAN_MOTION_DDOT":"0.0000000000000","TIME_SYSTEM":"UTC","OBJECT_NAME":"STARLINK-2345","MEAN_ANOMALY":"288.7720","MEAN_ELEMENT_THEORY":"SGP4","CENTER_NAME":"EARTH","FILE":"3162123","BSTAR":"-0.00007942600000","SITE":"AFETR","CLASSIFICATION_TYPE":"U","REF_FRAME":"TEME","ARG_OF_PERICENTER":"71.3434","DECAY_DATE":null,"LAUNCH_DATE":"2021-03-14","COUNTRY_CODE":"US","NORAD_CAT_ID":"47886","SEMIMAJOR_AXIS":"6925.392","OBJECT_TYPE":"PAYLOAD","MEAN_MOTION_DOT":"-0.00001464","REV_AT_EPOCH":"3338","PERIAPSIS":"546.201"},{"PERIOD":"95.593","INCLINATION":"53.0572","RA_OF_ASC_NODE":"296.8069","TLE_LINE2":"2 47887  53.0572 296.8069 0001337  73.8766 286.2370 15.06390815 33326","ELEMENT_SET_NO":"999","MEAN_MOTION_DDOT":"0.0000000000000","ECCENTRICITY":"0.00013370","RCS_SIZE":"LARGE","TLE_LINE1":"1 47887U 21021AD  21287.44789443  .00000220  00000-0  33686-4 0  9997","EPOCH":"2021-10-14T10:44:58.078752","APOAPSIS":"548.168","GP_ID":"187156346","MEAN_MOTION":"15.06390815","OBJECT_ID":"2021-021AD","EPHEMERIS_TYPE":"0","OBJECT_TYPE":"PAYLOAD","PERIAPSIS":"546.316","MEAN_MOTION_DOT":"0.00000220","REV_AT_EPOCH":"3332","OBJECT_NAME":"STARLINK-2346","MEAN_ANOMALY":"286.2370","TIME_SYSTEM":"UTC","DECAY_DATE":null,"ARG_OF_PERICENTER":"73.8766","COUNTRY_CODE":"US","LAUNCH_DATE":"2021-03-14","NORAD_CAT_ID":"47887","SEMIMAJOR_AXIS":"6925.377","MEAN_ELEMENT_THEORY":"SGP4","CENTER_NAME":"EARTH","FILE":"3162533","SITE":"AFETR","BSTAR":"0.00003368600000","REF_FRAME":"TEME","CLASSIFICATION_TYPE":"U"}];
